NovaSAR-1
1 43619U 18071B   23193.51065988  .00000934  00000-0  90694-4 0  9998
2 43619  97.6470  84.8251 0006255 124.8846 235.2963 14.94926065262902